STARLINK-36432          
1 67342U 26003J   26022.91668981 -.01225150  00000+0 -86570-2 0  9998
2 67342  42.9993 130.6744 0001500 281.8150 130.7050 15.75970007  3309
STARLINK-36458          
1 67343U 26003K   26022.91668981 -.01099645  00000+0 -76950-2 0  9998
2 67343  42.9994 130.6696 0001693 281.4084 133.0710 15.75887693  3310
STARLINK-36422          
1 67344U 26003L   26022.91668981 -.00903502  00000+0 -63466-2 0  9992
2 67344  42.9992 130.6635 0001320 270.0716 146.4461 15.75719132  3307
STARLINK-35676          
1 67345U 26003M   26022.91668981 -.00745232  00000+0 -51668-2 0  9998
2 67345  42.9995 130.6592 0001795 281.8011 136.7243 15.75579206  3303
STARLINK-36472          
1 67346U 26003N   26022.91668981 -.00680033  00000+0 -46907-2 0  9996
2 67346  42.9993 130.6540 0001574 285.4984 134.9824 15.75521063  3302
STARLINK-36420          
1 67347U 26003P   26022.91668981 -.00416523  00000+0 -28114-2 0  9998
2 67347  42.9993 130.6436 0002262 282.5077 141.9263 15.75299770  3316
STARLINK-36467          
1 67348U 26003Q   26022.91668981 -.00508840  00000+0 -34601-2 0  9991
2 67348  42.9994 130.6495 0001755 278.7931 143.6871 15.75383258  3314
STARLINK-36457          
1 67349U 26003R   26022.91668981 -.00281976  00000+0 -18795-2 0  9996
2 67349  42.9993 130.6388 0001965 283.6757 142.7301 15.75217144  3317
STARLINK-36475          
1 67350U 26003S   26022.91668981 -.00143763  00000+0 -94505-3 0  9993
2 67350  42.9992 130.6338 0001301 282.4278 145.9334 15.75129511  3302
STARLINK-36478          
1 67351U 26003T   26022.91668981 -.00099449  00000+0 -65010-3 0  9994
2 67351  42.9995 130.6299 0001665 289.8915 140.4010 15.75102973  3308
STARLINK-36479          
1 67352U 26003U   26022.91668981 -.00090977  00000+0 -59421-3 0  9991
2 67352  42.9993 130.6242 0001410 284.5921 147.6312 15.75090260  3312
STARLINK-36474          
1 67353U 26003V   26022.91668981 -.00026952  00000+0 -17273-3 0  9993
2 67353  42.9993 130.6198 0001677 278.1952 155.9538 15.75061951  3318
