CCSDS_OMM_VERS = 2.0
CREATION_DATE  = 
ORIGINATOR     = 

OBJECT_NAME    = STARLINK-36432
OBJECT_ID      = 2026-003J
CENTER_NAME    = EARTH
REF_FRAME      = TEME
TIME_SYSTEM    = UTC
MEAN_ELEMENT_THEORY = SGP/SGP4

EPOCH          = 2026-01-22T22:00:01.999584
MEAN_MOTION    = 15.75970007
ECCENTRICITY   = .00015003
INCLINATION    = 42.9993
RA_OF_ASC_NODE = 130.6744
ARG_OF_PERICENTER = 281.8150
MEAN_ANOMALY   = 130.7050

EPHEMERIS_TYPE = 0
CLASSIFICATION_TYPE = U
NORAD_CAT_ID   = 67342
ELEMENT_SET_NO = 999
REV_AT_EPOCH   = 330
BSTAR          = -.8657001E-2
MEAN_MOTION_DOT = -.122515E-1
MEAN_MOTION_DDOT = 0

CCSDS_OMM_VERS = 2.0
CREATION_DATE  = 
ORIGINATOR     = 

OBJECT_NAME    = STARLINK-36458
OBJECT_ID      = 2026-003K
CENTER_NAME    = EARTH
REF_FRAME      = TEME
TIME_SYSTEM    = UTC
MEAN_ELEMENT_THEORY = SGP/SGP4

EPOCH          = 2026-01-22T22:00:01.999584
MEAN_MOTION    = 15.75887693
ECCENTRICITY   = .00016936
INCLINATION    = 42.9994
RA_OF_ASC_NODE = 130.6696
ARG_OF_PERICENTER = 281.4084
MEAN_ANOMALY   = 133.0710

EPHEMERIS_TYPE = 0
CLASSIFICATION_TYPE = U
NORAD_CAT_ID   = 67343
ELEMENT_SET_NO = 999
REV_AT_EPOCH   = 331
BSTAR          = -.76949676E-2
MEAN_MOTION_DOT = -.1099645E-1
MEAN_MOTION_DDOT = 0

CCSDS_OMM_VERS = 2.0
CREATION_DATE  = 
ORIGINATOR     = 

OBJECT_NAME    = STARLINK-36422
OBJECT_ID      = 2026-003L
CENTER_NAME    = EARTH
REF_FRAME      = TEME
TIME_SYSTEM    = UTC
MEAN_ELEMENT_THEORY = SGP/SGP4

EPOCH          = 2026-01-22T22:00:01.999584
MEAN_MOTION    = 15.75719132
ECCENTRICITY   = .00013204
INCLINATION    = 42.9992
RA_OF_ASC_NODE = 130.6635
ARG_OF_PERICENTER = 270.0716
MEAN_ANOMALY   = 146.4461

EPHEMERIS_TYPE = 0
CLASSIFICATION_TYPE = U
NORAD_CAT_ID   = 67344
ELEMENT_SET_NO = 999
REV_AT_EPOCH   = 330
BSTAR          = -.63466499E-2
MEAN_MOTION_DOT = -.903502E-2
MEAN_MOTION_DDOT = 0

CCSDS_OMM_VERS = 2.0
CREATION_DATE  = 
ORIGINATOR     = 

OBJECT_NAME    = STARLINK-35676
OBJECT_ID      = 2026-003M
CENTER_NAME    = EARTH
REF_FRAME      = TEME
TIME_SYSTEM    = UTC
MEAN_ELEMENT_THEORY = SGP/SGP4

EPOCH          = 2026-01-22T22:00:01.999584
MEAN_MOTION    = 15.75579206
ECCENTRICITY   = .00017957
INCLINATION    = 42.9995
RA_OF_ASC_NODE = 130.6592
ARG_OF_PERICENTER = 281.8011
MEAN_ANOMALY   = 136.7243

EPHEMERIS_TYPE = 0
CLASSIFICATION_TYPE = U
NORAD_CAT_ID   = 67345
ELEMENT_SET_NO = 999
REV_AT_EPOCH   = 330
BSTAR          = -.51668014E-2
MEAN_MOTION_DOT = -.745232E-2
MEAN_MOTION_DDOT = 0

CCSDS_OMM_VERS = 2.0
CREATION_DATE  = 
ORIGINATOR     = 

OBJECT_NAME    = STARLINK-36472
OBJECT_ID      = 2026-003N
CENTER_NAME    = EARTH
REF_FRAME      = TEME
TIME_SYSTEM    = UTC
MEAN_ELEMENT_THEORY = SGP/SGP4

EPOCH          = 2026-01-22T22:00:01.999584
MEAN_MOTION    = 15.75521063
ECCENTRICITY   = .00015748
INCLINATION    = 42.9993
RA_OF_ASC_NODE = 130.6540
ARG_OF_PERICENTER = 285.4984
MEAN_ANOMALY   = 134.9824

EPHEMERIS_TYPE = 0
CLASSIFICATION_TYPE = U
NORAD_CAT_ID   = 67346
ELEMENT_SET_NO = 999
REV_AT_EPOCH   = 330
BSTAR          = -.46907202E-2
MEAN_MOTION_DOT = -.680033E-2
MEAN_MOTION_DDOT = 0

CCSDS_OMM_VERS = 2.0
CREATION_DATE  = 
ORIGINATOR     = 

OBJECT_NAME    = STARLINK-36420
OBJECT_ID      = 2026-003P
CENTER_NAME    = EARTH
REF_FRAME      = TEME
TIME_SYSTEM    = UTC
MEAN_ELEMENT_THEORY = SGP/SGP4

EPOCH          = 2026-01-22T22:00:01.999584
MEAN_MOTION    = 15.75299770
ECCENTRICITY   = .00022627
INCLINATION    = 42.9993
RA_OF_ASC_NODE = 130.6436
ARG_OF_PERICENTER = 282.5077
MEAN_ANOMALY   = 141.9263

EPHEMERIS_TYPE = 0
CLASSIFICATION_TYPE = U
NORAD_CAT_ID   = 67347
ELEMENT_SET_NO = 999
REV_AT_EPOCH   = 331
BSTAR          = -.28113501E-2
MEAN_MOTION_DOT = -.416523E-2
MEAN_MOTION_DDOT = 0

CCSDS_OMM_VERS = 2.0
CREATION_DATE  = 
ORIGINATOR     = 

OBJECT_NAME    = STARLINK-36467
OBJECT_ID      = 2026-003Q
CENTER_NAME    = EARTH
REF_FRAME      = TEME
TIME_SYSTEM    = UTC
MEAN_ELEMENT_THEORY = SGP/SGP4

EPOCH          = 2026-01-22T22:00:01.999584
MEAN_MOTION    = 15.75383258
ECCENTRICITY   = .00017558
INCLINATION    = 42.9994
RA_OF_ASC_NODE = 130.6495
ARG_OF_PERICENTER = 278.7931
MEAN_ANOMALY   = 143.6871

EPHEMERIS_TYPE = 0
CLASSIFICATION_TYPE = U
NORAD_CAT_ID   = 67348
ELEMENT_SET_NO = 999
REV_AT_EPOCH   = 331
BSTAR          = -.34601266E-2
MEAN_MOTION_DOT = -.50884E-2
MEAN_MOTION_DDOT = 0

CCSDS_OMM_VERS = 2.0
CREATION_DATE  = 
ORIGINATOR     = 

OBJECT_NAME    = STARLINK-36457
OBJECT_ID      = 2026-003R
CENTER_NAME    = EARTH
REF_FRAME      = TEME
TIME_SYSTEM    = UTC
MEAN_ELEMENT_THEORY = SGP/SGP4

EPOCH          = 2026-01-22T22:00:01.999584
MEAN_MOTION    = 15.75217144
ECCENTRICITY   = .00019653
INCLINATION    = 42.9993
RA_OF_ASC_NODE = 130.6388
ARG_OF_PERICENTER = 283.6757
MEAN_ANOMALY   = 142.7301

EPHEMERIS_TYPE = 0
CLASSIFICATION_TYPE = U
NORAD_CAT_ID   = 67349
ELEMENT_SET_NO = 999
REV_AT_EPOCH   = 331
BSTAR          = -.18795142E-2
MEAN_MOTION_DOT = -.281976E-2
MEAN_MOTION_DDOT = 0

CCSDS_OMM_VERS = 2.0
CREATION_DATE  = 
ORIGINATOR     = 

OBJECT_NAME    = STARLINK-36475
OBJECT_ID      = 2026-003S
CENTER_NAME    = EARTH
REF_FRAME      = TEME
TIME_SYSTEM    = UTC
MEAN_ELEMENT_THEORY = SGP/SGP4

EPOCH          = 2026-01-22T22:00:01.999584
MEAN_MOTION    = 15.75129511
ECCENTRICITY   = .00013018
INCLINATION    = 42.9992
RA_OF_ASC_NODE = 130.6338
ARG_OF_PERICENTER = 282.4278
MEAN_ANOMALY   = 145.9334

EPHEMERIS_TYPE = 0
CLASSIFICATION_TYPE = U
NORAD_CAT_ID   = 67350
ELEMENT_SET_NO = 999
REV_AT_EPOCH   = 330
BSTAR          = -.94505085E-3
MEAN_MOTION_DOT = -.143763E-2
MEAN_MOTION_DDOT = 0

CCSDS_OMM_VERS = 2.0
CREATION_DATE  = 
ORIGINATOR     = 

OBJECT_NAME    = STARLINK-36478
OBJECT_ID      = 2026-003T
CENTER_NAME    = EARTH
REF_FRAME      = TEME
TIME_SYSTEM    = UTC
MEAN_ELEMENT_THEORY = SGP/SGP4

EPOCH          = 2026-01-22T22:00:01.999584
MEAN_MOTION    = 15.75102973
ECCENTRICITY   = .00016656
INCLINATION    = 42.9995
RA_OF_ASC_NODE = 130.6299
ARG_OF_PERICENTER = 289.8915
MEAN_ANOMALY   = 140.4010

EPHEMERIS_TYPE = 0
CLASSIFICATION_TYPE = U
NORAD_CAT_ID   = 67351
ELEMENT_SET_NO = 999
REV_AT_EPOCH   = 330
BSTAR          = -.65009838E-3
MEAN_MOTION_DOT = -.99449E-3
MEAN_MOTION_DDOT = 0

CCSDS_OMM_VERS = 2.0
CREATION_DATE  = 
ORIGINATOR     = 

OBJECT_NAME    = STARLINK-36479
OBJECT_ID      = 2026-003U
CENTER_NAME    = EARTH
REF_FRAME      = TEME
TIME_SYSTEM    = UTC
MEAN_ELEMENT_THEORY = SGP/SGP4

EPOCH          = 2026-01-22T22:00:01.999584
MEAN_MOTION    = 15.75090260
ECCENTRICITY   = .00014105
INCLINATION    = 42.9993
RA_OF_ASC_NODE = 130.6242
ARG_OF_PERICENTER = 284.5921
MEAN_ANOMALY   = 147.6312

EPHEMERIS_TYPE = 0
CLASSIFICATION_TYPE = U
NORAD_CAT_ID   = 67352
ELEMENT_SET_NO = 999
REV_AT_EPOCH   = 331
BSTAR          = -.59421053E-3
MEAN_MOTION_DOT = -.90977E-3
MEAN_MOTION_DDOT = 0

CCSDS_OMM_VERS = 2.0
CREATION_DATE  = 
ORIGINATOR     = 

OBJECT_NAME    = STARLINK-36474
OBJECT_ID      = 2026-003V
CENTER_NAME    = EARTH
REF_FRAME      = TEME
TIME_SYSTEM    = UTC
MEAN_ELEMENT_THEORY = SGP/SGP4

EPOCH          = 2026-01-22T22:00:01.999584
MEAN_MOTION    = 15.75061951
ECCENTRICITY   = .00016777
INCLINATION    = 42.9993
RA_OF_ASC_NODE = 130.6198
ARG_OF_PERICENTER = 278.1952
MEAN_ANOMALY   = 155.9538

EPHEMERIS_TYPE = 0
CLASSIFICATION_TYPE = U
NORAD_CAT_ID   = 67353
ELEMENT_SET_NO = 999
REV_AT_EPOCH   = 331
BSTAR          = -.17272513E-3
MEAN_MOTION_DOT = -.26952E-3
MEAN_MOTION_DDOT = 0

